
STARLINK-32322          
1 61720U 24196P   25017.88369266  .00000135  00000+0  13345-4 0  9999
2 61720  53.1579 233.5142 0001155  76.8001 283.3133 15.39622916 13485
STARLINK-32469          
1 61721U 24196Q   25018.55596029 -.00000673  00000+0 -68330-5 0  9998
2 61721  53.1589 229.8864 0001774  95.3707 264.7500 15.39615688 13593
STARLINK-32438          
1 61722U 24196R   25018.59310711  .00000246  00000+0  16114-4 0  9991
2 61722  53.1589 230.1219 0000846  87.9022 272.2080 15.39621133 13598
STARLINK-32540          
1 61723U 24196S   25018.56979943 -.00005851  00000+0 -26834-4 0  9996
2 61723  53.1365 213.1415 0002123  36.6527 323.4640 15.80300821 13822
STARLINK-32528          
1 61724U 24196T   25018.01815842 -.00009592  00000+0 -22983-3 0  9990
2 61724  53.1584 232.9313 0000880  96.2123 263.8982 15.39657908 12307
STARLINK-32573          
1 61725U 24196U   25018.58813073 -.00000569  00000+0 -42275-5 0  9990
2 61725  53.1600 230.0889 0001477  94.5891 265.5283 15.39618472 13598
STARLINK-32478          
1 61726U 24196V   25018.32382863 -.00000015  00000+0  96067-5 0  9994
2 61726  53.1600 231.2819 0001272  89.2133 270.9018 15.39616141 13551
STARLINK-32511          
1 61727U 24196W   25018.31917507  .00001627  00000+0  50650-4 0  9999
2 61727  53.1591 231.2516 0001350  92.8200 267.2959 15.39617635 13559
STARLINK-32475          
1 61728U 24196X   25018.56955926  .00008762  00000+0  22910-3 0  9998
2 61728  53.1605 229.9734 0001869  86.9194 273.2025 15.39575896 13590
STARLINK-32442          
1 61729U 24196Y   25018.31454298 -.00000937  00000+0 -13457-4 0  9993
2 61729  53.1583 231.2242 0001118  88.8143 271.2990 15.39616976 13558
COSMOS 2579             
1 61730U 24197A   25018.57082007  .00008144  00000+0  35398-3 0  9992
2 61730  97.5610 293.3267 0008482   5.2286 354.9037 15.22519387 12078
DSN-3 (KIRAMEKI-3)      
1 61733U 24198A   25015.63371653 -.00000251  00000+0  00000+0 0  9998
2 61733   0.0544  82.7216 0002058 223.8271 180.9393  1.00270991   733
IONOSFERA-M 1           
1 61735U 24199A   25018.59748708  .00000150  00000+0  86967-4 0  9996
2 61735  98.7895 250.1280 0001279 137.1100 223.0178 14.22615909 54539
IONOSFERA-M 2           
1 61736U 24199B   25018.56208221  .00000144  00000+0  84487-4 0  9993
2 61736  98.7893 250.0102 0001513  51.3816 308.7497 14.22615995 57658
SITRO-AIS 16            
1 61737U 24199C   25018.56629400  .00006268  00000+0  60170-3 0  9995
2 61737  97.3766 244.7855 0007758  14.2232 345.9205 14.93382176 54898
SITRO-AIS 15            
1 61738U 24199D   25018.56247036  .00006039  00000+0  57890-3 0  9998
2 61738  97.3764 244.7902 0007472  14.7622 345.3815 14.93448408 54893
SITRO-AIS 21            
1 61739U 24199E   25018.57127902  .00006076  00000+0  60480-3 0  9999
2 61739  97.3766 244.6311 0013710 359.9921   0.1297 14.91898934 54922
SITRO-AIS 22            
1 61740U 24199F   25018.57058165  .00006145  00000+0  61117-3 0  9990
2 61740  97.3768 244.6347 0013843   1.1089 359.0159 14.91924327 55079
SITRO-AIS 24            
1 61741U 24199G   25018.56913220  .00005688  00000+0  56612-3 0  9997
2 61741  97.3769 244.6374 0013780   2.5906 357.5383 14.91926698 55046
SITRO-AIS 23            
1 61742U 24199H   25018.56804136  .00006035  00000+0  59965-3 0  9994
2 61742  97.3768 244.6379 0013676   2.0813 358.0461 14.91969731 54921
SITRO-AIS 13            
1 61743U 24199J   25018.55703815  .00005953  00000+0  56893-3 0  9991
2 61743  97.3763 244.7974 0007337  15.4560 344.6884 14.93579567 55054
2024-199K               
1 61744U 24199K   25018.54252398  .00020795  00000+0  77660-3 0  9992
2 61744  97.3785 248.4105 0013479 334.7889  25.2690 15.27318775 55238
2024-199L               
1 61745U 24199L   25018.59901761  .00023241  00000+0  85726-3 0  9994
2 61745  97.3756 248.4582 0011459 344.5572  15.5316 15.27728776 58382
COLIBRI-S (RS67S)       
1 61746U 24199M   25018.55267802  .00018219  00000+0  68821-3 0  9998
2 61746  97.3782 248.3925 0013455 335.9399  24.1209 15.26968277 58378
2024-199N               
1 61747U 24199N   25018.55315202  .00017037  00000+0  64621-3 0  9998
2 61747  97.3781 248.3907 0013349 334.1329  25.9241 15.26847216 58378
SITRO-AIS 44            
1 61748U 24199P   25018.59095155  .00025730  00000+0  94022-3 0  9992
2 61748  97.3755 248.4686 0011398 344.4219  15.6668 15.28017112 58385
VIZARD-ION (RS68S)      
1 61749U 24199Q   25018.60191600  .00021390  00000+0  79391-3 0  9997
2 61749  97.3784 248.4810 0013082 333.9087  26.1491 15.27521357 58386
2024-199R               
1 61750U 24199R   25018.56764408  .00021715  00000+0  82215-3 0  9996
2 61750  97.3758 248.3493 0013902 346.0116  14.0736 15.26849086 58372
2024-199S               
1 61751U 24199S   25018.58753578  .00012888  00000+0  50601-3 0  9990
2 61751  97.3760 248.3239 0012367 345.2535  14.8341 15.25773229 58389
SITRO-AIS 14            
1 61752U 24199T   25018.55987548  .00005844  00000+0  55976-3 0  9998
2 61752  97.3764 244.7934 0007375  15.2660 344.8782 14.93495670 58191
HORS 3 (RS81S)          
1 61753U 24199U   25018.55277251  .00021987  00000+0  82445-3 0  9999
2 61753  97.3754 248.3675 0012237 344.8406  15.2465 15.27187041 58370
HORS 4 (RS82S)          
1 61754U 24199V   25018.54338191  .00024106  00000+0  89429-3 0  9995
2 61754  97.3753 248.3788 0012408 345.1473  14.9400 15.27519591 58377
SITRO-AIS 43            
1 61755U 24199W   25018.58889642  .00025680  00000+0  93692-3 0  9997
2 61755  97.3755 248.4709 0011313 344.2602  15.8284 15.28069787 58381
SITRO-AIS 42            
1 61756U 24199X   25018.58806397  .00025797  00000+0  94072-3 0  9996
2 61756  97.3755 248.4721 0011349 344.3963  15.6925 15.28085292 58385
HORIZON (RS59S)         
1 61757U 24199Y   25018.58544508  .00029822  00000+0  10769-2 0  9993
2 61757  97.3780 248.4992 0013213 334.2418  25.8163 15.28354618 58387
SITRO-AIS 20            
1 61758U 24199Z   25018.55359047  .00005926  00000+0  56541-3 0  9991
2 61758  97.3761 244.7991 0007213  17.0512 343.0949 14.93647826 58192
SITRO-AIS 19            
1 61759U 24199AA  25018.55197248  .00005684  00000+0  54219-3 0  9996
2 61759  97.3762 244.8018 0007140  18.6801 341.4681 14.93670770 58191
SITRO-AIS 41            
1 61760U 24199AB  25018.59002127  .00025262  00000+0  92402-3 0  9993
2 61760  97.3757 248.4703 0011181 345.3224  14.7689 15.27990386 58382
2024-199AC              
1 61761U 24199AC  25018.59462186  .00022278  00000+0  82250-3 0  9993
2 61761  97.3754 248.4631 0011045 346.1382  13.9553 15.27710653 58381
ARCTICSAT 1 (RS74S)     
1 61762U 24199AD  25018.57420644  .00028806  00000+0  10334-2 0  9991
2 61762  97.3779 248.5126 0013020 332.6618  27.3936 15.28580515 58383
SIT-HSE                 
1 61763U 24199AE  25018.58483792  .00024647  00000+0  89850-3 0  9995
2 61763  97.3756 248.4768 0010983 345.5058  14.5865 15.28108820 58380
SIT-2086                
1 61764U 24199AF  25018.58030572  .00024982  00000+0  90838-3 0  9990
2 61764  97.3756 248.4832 0010722 346.4400  13.6550 15.28192959 55222
MORDOVIA-IOT (RS50S)    
1 61765U 24199AG  25018.54676522  .00035227  00000+0  12221-2 0  9991
2 61765  97.3779 248.5504 0012813 331.7501  28.3043 15.29635492 55233
RUZAEVKA 390 (RS44S)    
1 61766U 24199AH  25018.55205308  .00033842  00000+0  11851-2 0  9992
2 61766  97.3778 248.5406 0012648 331.3236  28.7307 15.29340928 55235
2024-199AJ              
1 61767U 24199AJ  25018.59394832  .00039827  00000+0  13565-2 0  9991
2 61767  97.3767 248.6306 0012441 329.4867  30.5648 15.30210910 55242
2024-199AK              
1 61768U 24199AK  25018.58148511  .00020626  00000+0  76141-3 0  9999
2 61768  97.3763 248.4888 0009152 352.6915   7.4189 15.27749412 55231
KOSAR                   
1 61769U 24199AL  25018.57148673  .00020673  00000+0  75578-3 0  9993
2 61769  97.3759 248.4980 0009027 354.1192   5.9940 15.28068404 55239
2024-199AM              
1 61770U 24199AM  25018.57191247  .00180223  00000+0  38863-2 0  9993
2 61770  97.3567 249.0769 0015365 347.9587  12.1292 15.43768435 55283
SITRO-AIS 48            
1 61771U 24199AN  25018.58400685  .00022064  00000+0  84052-3 0  9994
2 61771  97.3729 248.3010 0014999 353.2739   6.8296 15.26626692 55223
HYPERVIEW 1G (RS66S)    
1 61772U 24199AP  25018.57295261  .00027047  00000+0  10124-2 0  9990
2 61772  97.3753 248.3387 0016366 345.6621  14.4151 15.27147217 55220
SITRO-AIS 47            
1 61773U 24199AQ  25018.58521214  .00023749  00000+0  90438-3 0  9994
2 61773  97.3731 248.3013 0015098 353.5921   6.5122 15.26622040 55226
SITRO-AIS 46            
1 61774U 24199AR  25018.58429173  .00024498  00000+0  93043-3 0  9993
2 61774  97.3729 248.3012 0015319 353.3397   6.7636 15.26701304 55227
2024-199AS              
1 61775U 24199AS  25018.55012298  .00014207  00000+0  56343-3 0  9996
2 61775  97.3761 248.2227 0016466 346.2428  13.8359 15.25358622 55211
SITRO-AIS 40            
1 61776U 24199AT  25018.58603768  .00024843  00000+0  94411-3 0  9993
2 61776  97.3729 248.3006 0015449 353.6364   6.4676 15.26676227 58378
2024-199AU              
1 61777U 24199AU  25018.55034922  .00014673  00000+0  58143-3 0  9993
2 61777  97.3761 248.2224 0016667 346.7889  13.2911 15.25376877 55219
SITRO-AIS 39            
1 61778U 24199AV  25018.59240501  .00021661  00000+0  82941-3 0  9998
2 61778  97.3730 248.2914 0015465 354.2448   5.8610 15.26454208 55222
ALTAIR (RS65S)          
1 61779U 24199AW  25018.55594106  .00013347  00000+0  53316-3 0  9994
2 61779  97.3763 248.2162 0016747 346.2362  13.8417 15.25128761 58367
SITRO-AIS 37            
1 61780U 24199AX  25018.59392817  .00024273  00000+0  92875-3 0  9998
2 61780  97.3737 248.2974 0015781 353.7809   6.3231 15.26450378 55223
